{"spaceTrack"{"CCSDS_OMM_VERS":"2.0","COMMENT":"GENERATED VIA SPACE-TRACK.ORG API","CREATION_DATE":"2021-01-26T06:26:10","ORIGINATOR":"18 SPCS","OBJECT_NAME":"STARLINK-1767","OBJECT_ID":"2020-062W","CENTER_NAME":"EARTH","REF_FRAME":"TEME","TIME_SYSTEM":"UTC","MEAN_ELEMENT_THEORY":"SGP4","EPOCH":"2021-01-26T06:26:10","MEAN_MOTION":15.06398901,"ECCENTRICITY":0.0001414,"INCLINATION":53.0571,"RA_OF_ASC_NODE":122.8496,"ARG_OF_PERICENTER":70.4966,"MEAN_ANOMALY":209.4414,"EPHEMERIS_TYPE":0,"CLASSIFICATION_TYPE":"U","NORAD_CAT_ID":46345,"ELEMENT_SET_NO":999,"REV_AT_EPOCH":175,"BSTAR":0.00037778,"MEAN_MOTION_DOT":0.0000535,"MEAN_MOTION_DDOT":0,"SEMIMAJOR_AXIS":6925.352,"PERIOD":95.592,"APOAPSIS":548.196,"PERIAPSIS":546.238,"OBJECT_TYPE":"PAYLOAD","RCS_SIZE":"LARGE","COUNTRY_CODE":"US","LAUNCH_DATE":"2020-09-03","SITE":"AFETR","DECAY_DATE":null,"DECAYED":0,"FILE":2940260,"GP_ID":170413373,"TLE_LINE0":"0 STARLINK-1767","TLE_LINE1":"1 46345U 20062W   21026.58334491  .00005350  00000-0  37778-3 0  9998","TLE_LINE2":"2 46345  53.0571 122.8496 0001414  70.4966 209.4414 15.06398901  1758"},"version":"v1.0","launch":"5ef6a1e90059c33cee4a828a","longitude":0,"latitude":-49.336579625253506,"height_km":564.9512244913894,"velocity_kms":7.578113750265423,"id":"5f5a9c1e2fd30c00065e5ea9"}
{"spaceTrack"{"CCSDS_OMM_VERS":"2.0","COMMENT":"GENERATED VIA SPACE-TRACK.ORG API","CREATION_DATE":"2021-01-26T06:26:10","ORIGINATOR":"18 SPCS","OBJECT_NAME":"STARLINK-1763","OBJECT_ID":"2020-062AR","CENTER_NAME":"EARTH","REF_FRAME":"TEME","TIME_SYSTEM":"UTC","MEAN_ELEMENT_THEORY":"SGP4","EPOCH":"2021-01-26T06:26:10","MEAN_MOTION":15.54733266,"ECCENTRICITY":0.0009905,"INCLINATION":52.9975,"RA_OF_ASC_NODE":78.6743,"ARG_OF_PERICENTER":291.5387,"MEAN_ANOMALY":298.2113,"EPHEMERIS_TYPE":0,"CLASSIFICATION_TYPE":"U","NORAD_CAT_ID":46364,"ELEMENT_SET_NO":999,"REV_AT_EPOCH":177,"BSTAR":0.00089459,"MEAN_MOTION_DOT":0.00060563,"MEAN_MOTION_DDOT":0,"SEMIMAJOR_AXIS":6781.065,"PERIOD":92.62,"APOAPSIS":409.647,"PERIAPSIS":396.213,"OBJECT_TYPE":"PAYLOAD","RCS_SIZE":"LARGE","COUNTRY_CODE":"US","LAUNCH_DATE":"2020-09-03","SITE":"AFETR","DECAY_DATE":null,"DECAYED":0,"FILE":2940260,"GP_ID":170413845,"TLE_LINE0":"0 STARLINK-1763","TLE_LINE1":"1 46364U 20062AR  21026.58334491  .00060563  00000-0  89459-3 0  9999","TLE_LINE2":"2 46364  52.9975  78.6743 0009905 291.5387 298.2113 15.54733266  1778"},"version":"v1.0","launch":"5ef6a1e90059c33cee4a828a","longitude":59,"latitude":-39.09128142733255,"height_km":409.07876750439664,"velocity_kms":7.668759802990468,"id":"5f5a9c1e2fd30c00065e5ea5"}
{"spaceTrack"{"CCSDS_OMM_VERS":"2.0","COMMENT":"GENERATED VIA SPACE-TRACK.ORG API","CREATION_DATE":"2021-01-26T06:26:10","ORIGINATOR":"18 SPCS","OBJECT_NAME":"STARLINK-1656","OBJECT_ID":"2020-062AE","CENTER_NAME":"EARTH","REF_FRAME":"TEME","TIME_SYSTEM":"UTC","MEAN_ELEMENT_THEORY":"SGP4","EPOCH":"2021-01-26T06:26:10","MEAN_MOTION":15.06402962,"ECCENTRICITY":0.0001571,"INCLINATION":53.0558,"RA_OF_ASC_NODE":121.7405,"ARG_OF_PERICENTER":52.8046,"MEAN_ANOMALY":63.6453,"EPHEMERIS_TYPE":0,"CLASSIFICATION_TYPE":"U","NORAD_CAT_ID":46353,"ELEMENT_SET_NO":999,"REV_AT_EPOCH":2295,"BSTAR":-0.00071683,"MEAN_MOTION_DOT":-0.00010943,"MEAN_MOTION_DDOT":0,"SEMIMAJOR_AXIS":6925.339,"PERIOD":95.592,"APOAPSIS":548.292,"PERIAPSIS":546.117,"OBJECT_TYPE":"PAYLOAD","RCS_SIZE":"LARGE","COUNTRY_CODE":"US","LAUNCH_DATE":"2020-09-03","SITE":"AFETR","DECAY_DATE":null,"DECAYED":0,"FILE":2940336,"GP_ID":170437165,"TLE_LINE0":"0 STARLINK-1656","TLE_LINE1":"1 46353U 20062AE  21026.83334491 -.00010943  00000-0 -71683-3 0  9994","TLE_LINE2":"2 46353  53.0558 121.7405 0001571  52.8046  63.6453 15.06402962 22958"},"version":"v1.0","launch":"5ef6a1e90059c33cee4a828a","longitude":89,"latitude":-22.76113132723768,"height_km":554.6594054614607,"velocity_kms":7.583875612648812,"id":"5f5a9c1e2fd30c00065e5ea4"}
{"spaceTrack"{"CCSDS_OMM_VERS":"2.0","COMMENT":"GENERATED VIA SPACE-TRACK.ORG API","CREATION_DATE":"2021-01-26T06:26:10","ORIGINATOR":"18 SPCS","OBJECT_NAME":"STARLINK-1654","OBJECT_ID":"2020-062B","CENTER_NAME":"EARTH","REF_FRAME":"TEME","TIME_SYSTEM":"UTC","MEAN_ELEMENT_THEORY":"SGP4","EPOCH":"2021-01-26T06:26:10","MEAN_MOTION":15.06403336,"ECCENTRICITY":0.0001467,"INCLINATION":53.0588,"RA_OF_ASC_NODE":122.8509,"ARG_OF_PERICENTER":69.9843,"MEAN_ANOMALY":35.0979,"EPHEMERIS_TYPE":0,"CLASSIFICATION_TYPE":"U","NORAD_CAT_ID":46326,"ELEMENT_SET_NO":999,"REV_AT_EPOCH":175,"BSTAR":-0.0002432,"MEAN_MOTION_DOT":-0.00003902,"MEAN_MOTION_DDOT":0,"SEMIMAJOR_AXIS":6925.338,"PERIOD":95.592,"APOAPSIS":548.219,"PERIAPSIS":546.187,"OBJECT_TYPE":"PAYLOAD","RCS_SIZE":"LARGE","COUNTRY_CODE":"US","LAUNCH_DATE":"2020-09-03","SITE":"AFETR","DECAY_DATE":null,"DECAYED":0,"FILE":2940260,"GP_ID":170413597,"TLE_LINE0":"0 STARLINK-1654","TLE_LINE1":"1 46326U 20062B   21026.58334491 -.00003902  00000-0 -24320-3 0  9999","TLE_LINE2":"2 46326  53.0588 122.8509 0001467  69.9843  35.0979 15.06403336  1753"},"version":"v1.0","launch":"5ef6a1e90059c33cee4a828a","longitude":168,"latitude":47.000189360712376,"height_km":551.6125184774901,"velocity_kms":7.592206436508264,"id":"5f5a9c1e2fd30c00065e5eac"}
{"spaceTrack"{"CCSDS_OMM_VERS":"2.0","COMMENT":"GENERATED VIA SPACE-TRACK.ORG API","CREATION_DATE":"2021-01-26T06:26:10","ORIGINATOR":"18 SPCS","OBJECT_NAME":"STARLINK-1751","OBJECT_ID":"2020-062BF","CENTER_NAME":"EARTH","REF_FRAME":"TEME","TIME_SYSTEM":"UTC","MEAN_ELEMENT_THEORY":"SGP4","EPOCH":"2021-01-26T06:26:10","MEAN_MOTION":15.34365349,"ECCENTRICITY":0.0001404,"INCLINATION":52.9984,"RA_OF_ASC_NODE":79.273,"ARG_OF_PERICENTER":65.8842,"MEAN_ANOMALY":160.2938,"EPHEMERIS_TYPE":0,"CLASSIFICATION_TYPE":"U","NORAD_CAT_ID":46378,"ELEMENT_SET_NO":999,"REV_AT_EPOCH":176,"BSTAR":-0.030642,"MEAN_MOTION_DOT":-0.00945757,"MEAN_MOTION_DDOT":0,"SEMIMAJOR_AXIS":6840.943,"PERIOD":93.85,"APOAPSIS":463.769,"PERIAPSIS":461.848,"OBJECT_TYPE":"PAYLOAD","RCS_SIZE":"LARGE","COUNTRY_CODE":"US","LAUNCH_DATE":"2020-09-03","SITE":"AFETR","DECAY_DATE":null,"DECAYED":0,"FILE":2940260,"GP_ID":170414053,"TLE_LINE0":"0 STARLINK-1751","TLE_LINE1":"1 46378U 20062BF  21026.58334491 -.00945757  00000-0 -30642-1 0  9991","TLE_LINE2":"2 46378  52.9984  79.2730 0001404  65.8842 160.2938 15.34365349  1763"},"version":"v1.0","launch":"5ef6a1e90059c33cee4a828a","longitude":109,"latitude":-52.9064896291318,"height_km":484.42994702896794,"velocity_kms":7.622416353464522,"id":"5f5a9c1e2fd30c00065e5ead"}
{"spaceTrack"{"CCSDS_OMM_VERS":"2.0","COMMENT":"GENERATED VIA SPACE-TRACK.ORG API","CREATION_DATE":"2021-01-26T06:26:10","ORIGINATOR":"18 SPCS","OBJECT_NAME":"STARLINK-1764","OBJECT_ID":"2020-062U","CENTER_NAME":"EARTH","REF_FRAME":"TEME","TIME_SYSTEM":"UTC","MEAN_ELEMENT_THEORY":"SGP4","EPOCH":"2021-01-26T06:26:10","MEAN_MOTION":15.06401757,"ECCENTRICITY":0.0001265,"INCLINATION":53.058,"RA_OF_ASC_NODE":101.3523,"ARG_OF_PERICENTER":96.3796,"MEAN_ANOMALY":302.2213,"EPHEMERIS_TYPE":0,"CLASSIFICATION_TYPE":"U","NORAD_CAT_ID":46343,"ELEMENT_SET_NO":999,"REV_AT_EPOCH":2325,"BSTAR":-0.0014401,"MEAN_MOTION_DOT":-0.00021668,"MEAN_MOTION_DDOT":0,"SEMIMAJOR_AXIS":6925.343,"PERIOD":95.592,"APOAPSIS":548.084,"PERIAPSIS":546.332,"OBJECT_TYPE":"PAYLOAD","RCS_SIZE":"LARGE","COUNTRY_CODE":"US","LAUNCH_DATE":"2020-09-03","SITE":"AFETR","DECAY_DATE":null,"DECAYED":0,"FILE":2940369,"GP_ID":170438131,"TLE_LINE0":"0 STARLINK-1764","TLE_LINE1":"1 46343U 20062U   21026.91667824 -.00021668  00000-0 -14401-2 0  9991","TLE_LINE2":"2 46343  53.0580 101.3523 0001265  96.3796 302.2213 15.06401757 23253"},"version":"v1.0","launch":"5ef6a1e90059c33cee4a828a","longitude":71,"latitude":29.84239045546725,"height_km":548.4219288459753,"velocity_kms":7.591980923665918,"id":"5f5a9c1e2fd30c00065e5eb6"}
{"spaceTrack"{"CCSDS_OMM_VERS":"2.0","COMMENT":"GENERATED VIA SPACE-TRACK.ORG API","CREATION_DATE":"2021-01-26T06:26:10","ORIGINATOR":"18 SPCS","OBJECT_NAME":"STARLINK-1646","OBJECT_ID":"2020-062AC","CENTER_NAME":"EARTH","REF_FRAME":"TEME","TIME_SYSTEM":"UTC","MEAN_ELEMENT_THEORY":"SGP4","EPOCH":"2021-01-26T06:26:10","MEAN_MOTION":15.06440354,"ECCENTRICITY":0.0001386,"INCLINATION":53.0591,"RA_OF_ASC_NODE":101.7324,"ARG_OF_PERICENTER":96.981,"MEAN_ANOMALY":269.4831,"EPHEMERIS_TYPE":0,"CLASSIFICATION_TYPE":"U","NORAD_CAT_ID":46351,"ELEMENT_SET_NO":999,"REV_AT_EPOCH":2324,"BSTAR":-0.0057459,"MEAN_MOTION_DOT":-0.00084943,"MEAN_MOTION_DDOT":0,"SEMIMAJOR_AXIS":6925.225,"PERIOD":95.59,"APOAPSIS":548.05,"PERIAPSIS":546.13,"OBJECT_TYPE":"PAYLOAD","RCS_SIZE":"LARGE","COUNTRY_CODE":"US","LAUNCH_DATE":"2020-09-03","SITE":"AFETR","DECAY_DATE":null,"DECAYED":0,"FILE":2940332,"GP_ID":170437614,"TLE_LINE0":"0 STARLINK-1646","TLE_LINE1":"1 46351U 20062AC  21026.83334491 -.00084943  00000-0 -57459-2 0  9997","TLE_LINE2":"2 46351  53.0591 101.7324 0001386  96.9810 269.4831 15.06440354 23249"},"version":"v1.0","launch":"5ef6a1e90059c33cee4a828a","longitude":152,"latitude":52.33832416233472,"height_km":552.569353203744,"velocity_kms":7.592325698228366,"id":"5f5a9c1e2fd30c00065e5eb7"}
